start=new Date('2022-03-13T00:00:00.000Z').valueOf();
sats=[{"PERIOD":"95.593","ELEMENT_SET_NO":"999","REF_FRAME":"TEME","OBJECT_ID":"2020-038AP","ARG_OF_PERICENTER":"62.2252","MEAN_MOTION_DOT":"-0.00001468","FILE":"3356931","SEMIMAJOR_AXIS":"6925.366","OBJECT_NAME":"STARLINK-1511","MEAN_MOTION_DDOT":"0.0000000000000","APOAPSIS":"548.342","BSTAR":"-0.00007968400000","SITE":"AFETR","REV_AT_EPOCH":"9674","ECCENTRICITY":"0.00016040","CENTER_NAME":"EARTH","NORAD_CAT_ID":"45767","EPOCH":"2022-03-12T21:28:26.610816","PERIAPSIS":"546.120","TLE_LINE2":"2 45767  53.0541 280.9206 0001604  62.2252 297.8900 15.06394315 96744","CLASSIFICATION_TYPE":"U","RA_OF_ASC_NODE":"280.9206","RCS_SIZE":"LARGE","LAUNCH_DATE":"2020-06-13","TIME_SYSTEM":"UTC","DECAY_DATE":null,"OBJECT_TYPE":"PAYLOAD","COUNTRY_CODE":"US","INCLINATION":"53.0541","TLE_LINE1":"1 45767U 20038AP  22071.89475244 -.00001468  00000-0 -79684-4 0  9996","MEAN_ELEMENT_THEORY":"SGP4","GP_ID":"198602965","EPHEMERIS_TYPE":"0","MEAN_ANOMALY":"297.8900","MEAN_MOTION":"15.06394315"},{"GP_ID":"198603716","MEAN_ELEMENT_THEORY":"SGP4","EPHEMERIS_TYPE":"0","MEAN_MOTION":"15.06409248","MEAN_ANOMALY":"295.0088","RCS_SIZE":"LARGE","RA_OF_ASC_NODE":"281.0095","LAUNCH_DATE":"2020-06-13","PERIAPSIS":"546.018","CLASSIFICATION_TYPE":"U","TLE_LINE2":"2 45768  53.0520 281.0095 0001685  65.1076 295.0088 15.06409248 96755","INCLINATION":"53.0520","COUNTRY_CODE":"US","OBJECT_TYPE":"PAYLOAD","TLE_LINE1":"1 45768U 20038AQ  22071.87632282  .00001866  00000-0  14410-3 0  9997","TIME_SYSTEM":"UTC","DECAY_DATE":null,"BSTAR":"0.00014410000000","REV_AT_EPOCH":"9675","SITE":"AFETR","MEAN_MOTION_DDOT":"0.0000000000000","APOAPSIS":"548.352","EPOCH":"2022-03-12T21:01:54.291648","NORAD_CAT_ID":"45768","CENTER_NAME":"EARTH","ECCENTRICITY":"0.00016850","ARG_OF_PERICENTER":"65.1076","OBJECT_ID":"2020-038AQ","PERIOD":"95.592","ELEMENT_SET_NO":"999","REF_FRAME":"TEME","SEMIMAJOR_AXIS":"6925.320","FILE":"3356931","OBJECT_NAME":"STARLINK-1521","MEAN_MOTION_DOT":"0.00001866"},{"PERIOD":"95.591","REF_FRAME":"TEME","ELEMENT_SET_NO":"999","ARG_OF_PERICENTER":"53.3831","OBJECT_ID":"2020-038AR","MEAN_MOTION_DOT":"-0.00001617","FILE":"3356931","SEMIMAJOR_AXIS":"6925.316","OBJECT_NAME":"STARLINK-1459","MEAN_MOTION_DDOT":"0.0000000000000","APOAPSIS":"548.420","BSTAR":"-0.00008965200000","REV_AT_EPOCH":"9647","SITE":"AFETR","CENTER_NAME":"EARTH","ECCENTRICITY":"0.00017890","EPOCH":"2022-03-12T21:36:24.247296","NORAD_CAT_ID":"45769","PERIAPSIS":"545.942","CLASSIFICATION_TYPE":"U","TLE_LINE2":"2 45769  53.0544 300.8988 0001789  53.3831 306.7323 15.06410708 96470","RCS_SIZE":"LARGE","RA_OF_ASC_NODE":"300.8988","LAUNCH_DATE":"2020-06-13","TIME_SYSTEM":"UTC","DECAY_DATE":null,"INCLINATION":"53.0544","COUNTRY_CODE":"US","OBJECT_TYPE":"PAYLOAD","TLE_LINE1":"1 45769U 20038AR  22071.90028064 -.00001617  00000-0 -89652-4 0  9996","GP_ID":"198602464","MEAN_ELEMENT_THEORY":"SGP4","EPHEMERIS_TYPE":"0","MEAN_MOTION":"15.06410708","MEAN_ANOMALY":"306.7323"},{"PERIOD":"95.592","ELEMENT_SET_NO":"999","REF_FRAME":"TEME","ARG_OF_PERICENTER":"68.5415","OBJECT_ID":"2020-038AS","MEAN_MOTION_DOT":"-0.00000386","SEMIMAJOR_AXIS":"6925.332","FILE":"3356931","OBJECT_NAME":"STARLINK-1462","MEAN_MOTION_DDOT":"0.0000000000000","APOAPSIS":"548.223","BSTAR":"-0.00000699900000","SITE":"AFETR","REV_AT_EPOCH":"9701","CENTER_NAME":"EARTH","ECCENTRICITY":"0.00014810","NORAD_CAT_ID":"45770","EPOCH":"2022-03-12T20:04:49.030176","PERIAPSIS":"546.172","TLE_LINE2":"2 45770  53.0516 261.1691 0001481  68.5415 291.5731 15.06405316 97010","CLASSIFICATION_TYPE":"U","RA_OF_ASC_NODE":"261.1691","RCS_SIZE":"LARGE","LAUNCH_DATE":"2020-06-13","TIME_SYSTEM":"UTC","DECAY_DATE":null,"OBJECT_TYPE":"PAYLOAD","COUNTRY_CODE":"US","INCLINATION":"53.0516","TLE_LINE1":"1 45770U 20038AS  22071.83667859 -.00000386  00000-0 -69990-5 0  9997","GP_ID":"198602714","MEAN_ELEMENT_THEORY":"SGP4","EPHEMERIS_TYPE":"0","MEAN_ANOMALY":"291.5731","MEAN_MOTION":"15.06405316"},{"SEMIMAJOR_AXIS":"6925.372","FILE":"3356931","OBJECT_NAME":"STARLINK-1463","MEAN_MOTION_DOT":"0.00002197","ARG_OF_PERICENTER":"67.5263","OBJECT_ID":"2020-038AT","PERIOD":"95.593","ELEMENT_SET_NO":"999","REF_FRAME":"TEME","EPOCH":"2022-03-12T21:31:05.688768","NORAD_CAT_ID":"45771","ECCENTRICITY":"0.00016750","CENTER_NAME":"EARTH","BSTAR":"0.00016638000000","REV_AT_EPOCH":"9702","SITE":"AFETR","MEAN_MOTION_DDOT":"0.0000000000000","APOAPSIS":"548.397","INCLINATION":"53.0544","COUNTRY_CODE":"US","OBJECT_TYPE":"PAYLOAD","TLE_LINE1":"1 45771U 20038AT  22071.89659362  .00002197  00000-0  16638-3 0  9993","TIME_SYSTEM":"UTC","DECAY_DATE":null,"RCS_SIZE":"LARGE","RA_OF_ASC_NODE":"260.9146","LAUNCH_DATE":"2020-06-13","PERIAPSIS":"546.077","CLASSIFICATION_TYPE":"U","TLE_LINE2":"2 45771  53.0544 260.9146 0001675  67.5263 292.5903 15.06392225 97026","MEAN_MOTION":"15.06392225","MEAN_ANOMALY":"292.5903","GP_ID":"198603466","MEAN_ELEMENT_THEORY":"SGP4","EPHEMERIS_TYPE":"0"},{"ARG_OF_PERICENTER":"71.8019","OBJECT_ID":"2020-038AU","PERIOD":"95.591","ELEMENT_SET_NO":"999","REF_FRAME":"TEME","FILE":"3356931","SEMIMAJOR_AXIS":"6925.316","OBJECT_NAME":"STARLINK-1470","MEAN_MOTION_DOT":"0.00000801","BSTAR":"0.00007262000000","SITE":"AFETR","REV_AT_EPOCH":"9703","MEAN_MOTION_DDOT":"0.0000000000000","APOAPSIS":"548.124","NORAD_CAT_ID":"45772","EPOCH":"2022-03-12T21:15:11.303136","CENTER_NAME":"EARTH","ECCENTRICITY":"0.00013620","RA_OF_ASC_NODE":"260.9529","RCS_SIZE":"LARGE","LAUNCH_DATE":"2020-06-13","PERIAPSIS":"546.238","TLE_LINE2":"2 45772  53.0520 260.9529 0001362  71.8019 288.3118 15.06410605 97031","CLASSIFICATION_TYPE":"U","OBJECT_TYPE":"PAYLOAD","COUNTRY_CODE":"US","INCLINATION":"53.0520","TLE_LINE1":"1 45772U 20038AU  22071.88554749  .00000801  00000-0  72620-4 0  9990","TIME_SYSTEM":"UTC","DECAY_DATE":null,"MEAN_ELEMENT_THEORY":"SGP4","GP_ID":"198603216","EPHEMERIS_TYPE":"0","MEAN_ANOMALY":"288.3118","MEAN_MOTION":"15.06410605"},{"BSTAR":"0.00000715720000","SITE":"AFETR","REV_AT_EPOCH":"9703","MEAN_MOTION_DDOT":"0.0000000000000","APOAPSIS":"548.285","NORAD_CAT_ID":"45773","EPOCH":"2022-03-12T21:04:33.057696","CENTER_NAME":"EARTH","ECCENTRICITY":"0.00015640","ARG_OF_PERICENTER":"65.9448","OBJECT_ID":"2020-038AV","PERIOD":"95.592","REF_FRAME":"TEME","ELEMENT_SET_NO":"999","FILE":"3356931","SEMIMAJOR_AXIS":"6925.337","OBJECT_NAME":"STARLINK-1482","MEAN_MOTION_DOT":"-0.00000175","MEAN_ELEMENT_THEORY":"SGP4","GP_ID":"198601964","EPHEMERIS_TYPE":"0","MEAN_ANOMALY":"294.1704","MEAN_MOTION":"15.06403876","RA_OF_ASC_NODE":"260.9924","RCS_SIZE":"LARGE","LAUNCH_DATE":"2020-06-13","PERIAPSIS":"546.119","TLE_LINE2":"2 45773  53.0538 260.9924 0001564  65.9448 294.1704 15.06403876 97032","CLASSIFICATION_TYPE":"U","OBJECT_TYPE":"PAYLOAD","COUNTRY_CODE":"US","INCLINATION":"53.0538","TLE_LINE1":"1 45773U 20038AV  22071.87816039 -.00000175  00000-0  71572-5 0  9994","TIME_SYSTEM":"UTC","DECAY_DATE":null},{"NORAD_CAT_ID":"45774","EPOCH":"2022-03-12T18:46:34.091328","CENTER_NAME":"EARTH","ECCENTRICITY":"0.00015600","SITE":"AFETR","REV_AT_EPOCH":"9701","BSTAR":"0.00019409000000","APOAPSIS":"548.260","MEAN_MOTION_DDOT":"0.0000000000000","OBJECT_NAME":"STARLINK-1485","FILE":"3356931","SEMIMAJOR_AXIS":"6925.315","MEAN_MOTION_DOT":"0.00002611","ARG_OF_PERICENTER":"69.5504","OBJECT_ID":"2020-038AW","REF_FRAME":"TEME","ELEMENT_SET_NO":"999","PERIOD":"95.591","MEAN_ANOMALY":"290.5653","MEAN_MOTION":"15.06411011","EPHEMERIS_TYPE":"0","GP_ID":"198602214","MEAN_ELEMENT_THEORY":"SGP4","TLE_LINE1":"1 45774U 20038AW  22071.78233902  .00002611  00000-0  19409-3 0  9992","OBJECT_TYPE":"PAYLOAD","INCLINATION":"53.0544","COUNTRY_CODE":"US","DECAY_DATE":null,"TIME_SYSTEM":"UTC","LAUNCH_DATE":"2020-06-13","RA_OF_ASC_NODE":"261.4167","RCS_SIZE":"LARGE","TLE_LINE2":"2 45774  53.0544 261.4167 0001560  69.5504 290.5653 15.06411011 97015","CLASSIFICATION_TYPE":"U","PERIAPSIS":"546.099"},{"ELEMENT_SET_NO":"999","REF_FRAME":"TEME","PERIOD":"95.592","OBJECT_ID":"2020-038AX","ARG_OF_PERICENTER":"78.9505","MEAN_MOTION_DOT":"0.00002431","OBJECT_NAME":"STARLINK-1488","FILE":"3356931","SEMIMAJOR_AXIS":"6925.327","APOAPSIS":"548.210","MEAN_MOTION_DDOT":"0.0000000000000","SITE":"AFETR","REV_AT_EPOCH":"9702","BSTAR":"0.00018204000000","CENTER_NAME":"EARTH","ECCENTRICITY":"0.00014690","NORAD_CAT_ID":"45775","EPOCH":"2022-03-12T18:51:52.018272","TLE_LINE2":"2 45775  53.0529 261.4051 0001469  78.9505 281.1649 15.06406953 97025","CLASSIFICATION_TYPE":"U","PERIAPSIS":"546.175","LAUNCH_DATE":"2020-06-13","RA_OF_ASC_NODE":"261.4051","RCS_SIZE":"LARGE","DECAY_DATE":null,"TIME_SYSTEM":"UTC","TLE_LINE1":"1 45775U 20038AX  22071.78601873  .00002431  00000-0  18204-3 0  9991","OBJECT_TYPE":"PAYLOAD","COUNTRY_CODE":"US","INCLINATION":"53.0529","EPHEMERIS_TYPE":"0","GP_ID":"198602966","MEAN_ELEMENT_THEORY":"SGP4","MEAN_ANOMALY":"281.1649","MEAN_MOTION":"15.06406953"},{"SITE":"AFETR","REV_AT_EPOCH":"9702","BSTAR":"0.00010918000000","APOAPSIS":"548.383","MEAN_MOTION_DDOT":"0.0000000000000","NORAD_CAT_ID":"45776","EPOCH":"2022-03-12T19:02:29.511168","CENTER_NAME":"EARTH","ECCENTRICITY":"0.00017310","ARG_OF_PERICENTER":"69.9415","OBJECT_ID":"2020-038AY","ELEMENT_SET_NO":"999","REF_FRAME":"TEME","PERIOD":"95.592","OBJECT_NAME":"STARLINK-1489","SEMIMAJOR_AXIS":"6925.319","FILE":"3356931","MEAN_MOTION_DOT":"0.00001345","EPHEMERIS_TYPE":"0","GP_ID":"198603717","MEAN_ELEMENT_THEORY":"SGP4","MEAN_ANOMALY":"290.1761","MEAN_MOTION":"15.06409498","LAUNCH_DATE":"2020-06-13","RA_OF_ASC_NODE":"261.3592","RCS_SIZE":"LARGE","TLE_LINE2":"2 45776  53.0530 261.3592 0001731  69.9415 290.1761 15.06409498 97021","CLASSIFICATION_TYPE":"U","PERIAPSIS":"545.986","TLE_LINE1":"1 45776U 20038AY  22071.79339712  .00001345  00000-0  10918-3 0  9990","OBJECT_TYPE":"PAYLOAD","COUNTRY_CODE":"US","INCLINATION":"53.0530","DECAY_DATE":null,"TIME_SYSTEM":"UTC"}];
